[{"type": "node", "id": 4890696636, "lat": 46.2102288, "lon": 6.1426218, "tags": {"addr:city": "Gen\u00e8ve", "alt_name": "Gen\u00e8ve-Cornavin", "ele": "392", "internet_access": "wlan", "internet_access:fee": "no", "internet_access:operator": "SBB", "name": "Gen\u00e8ve", "name:ar": "\u062c\u0646\u064a\u0641", "name:azb": "\u0698\u0646\u0648", "name:de": "Genf Hauptbahnhof", "name:en": "Geneva Railway Station", "name:fa": "\u0698\u0646\u0648", "name:kk-Arab": "\u062c\u06d5\u0646\u06d5\u06c6\u0627", "name:pnb": "\u062c\u0646\u06cc\u0648\u0627", "name:sd": "\u062c\u0646\u064a\u0648\u0627", "name:ur": "\u062c\u0646\u06cc\u0648\u0627", "name:zh": "\u65e5\u5185\u74e6\u706b\u8f66\u7ad9", "network": "Unireso", "operator": "CFF", "public_transport": "station", "railway": "station", "railway:ref": "GE", "train": "yes", "uic_name": "Gen\u00e8ve", "uic_ref": "8501008", "wheelchair": "yes", "wikidata": "Q800819", "wikipedia": "fr:Gare de Gen\u00e8ve-Cornavin"}}, {"type": "node", "id": 6044426066, "lat": 46.200523, "lon": 6.1648206, "tags": {"name": "Gen\u00e8ve-Eaux-Vives", "network": "ch-direct", "operator": "SBB", "public_transport": "station", "railway": "station", "railway:ref": "GEV", "train": "yes", "uic_name": "Gen\u00e8ve-Eaux-Vives", "uic_ref": "8516273", "wikidata": "Q3098155", "wikipedia": "fr:Gare de Gen\u00e8ve-Eaux-Vives"}}, {"type": "node", "id": 6886690043, "lat": 46.1924838, "lon": 6.1537008, "tags": {"name": "Gen\u00e8ve-Champel", "network": "ch-direct", "operator": "SBB", "public_transport": "station", "railway": "station", "railway:ref": "CHHO", "train": "yes", "uic_name": "Gen\u00e8ve-Champel", "uic_ref": "8516272", "wikidata": "Q48610587", "wikipedia": "fr:Gare de Gen\u00e8ve-Champel"}}]